NORAD_CAT_ID,OBJECT_NAME,OBJECT_TYPE,EPOCH,MEAN_MOTION,ECCENTRICITY,INCLINATION,RA_OF_ASC_NODE,ARG_OF_PERICENTER,MEAN_ANOMALY,BSTAR,MEAN_MOTION_DOT,MEAN_MOTION_DDOT,TLE_LINE0,TLE_LINE1,TLE_LINE2,SEMIMAJOR_AXIS,PERIOD,APOGEE,PERIGEE,DECAYED
53793.0,STARLINK-4728,PAYLOAD,2024-02-10 08:02:53,15.08833466,0.0001539,53.2175,78.2795,102.6678,257.4487,1.821e-05,2e-08,0.0,0 STARLINK-4728,1 53793U 22111W   24041.33534016  .00000002  00000-0  18210-4 0  9998,2 53793  53.2175  78.2795 0001539 102.6678 257.4487 15.08833466 78408,6917.9,95.438,540.83,538.701,0.0
53793.0,STARLINK-4728,PAYLOAD,2024-02-11 09:29:03,15.08840677,0.0001751,53.2173,73.5193,101.3263,258.7926,6.5419e-05,7.53e-06,0.0,0 STARLINK-4728,1 53793U 22111W   24042.39517704  .00000753  00000-0  65419-4 0  9996,2 53793  53.2173  73.5193 0001751 101.3263 258.7926 15.08840677 78569,6917.878,95.438,540.955,538.532,0.0
53793.0,STARLINK-4728,PAYLOAD,2024-02-12 10:55:12,15.08850272,0.0001661,53.2182,68.7609,86.1375,273.9807,0.00023588,3.469e-05,0.0,0 STARLINK-4728,1 53793U 22111W   24043.45500758  .00003469  00000-0  23588-3 0  9992,2 53793  53.2182  68.7609 0001661  86.1375 273.9807 15.08850272 78728,6917.849,95.437,540.863,538.565,0.0
53793.0,STARLINK-4728,PAYLOAD,2024-02-13 01:13:42,15.0883362,0.000171,53.2177,66.0855,63.9602,296.1566,-1.8847e-05,-5.88e-06,0.0,0 STARLINK-4728,1 53793U 22111W   24044.05118611 -.00000588  00000-0 -18847-4 0  9996,2 53793  53.2177  66.0855 0001710  63.9602 296.1566 15.08833620 78814,6917.9,95.438,540.948,538.582,0.0
53793.0,STARLINK-4728,PAYLOAD,2024-02-13 07:35:14,15.08837182,0.0001571,53.2183,64.8965,75.497,284.6196,1.5474e-05,-4.2e-07,0.0,0 STARLINK-4728,1 53793U 22111W   24044.31614330 -.00000042  00000-0  15474-4 0  9991,2 53793  53.2183  64.8965 0001571  75.4970 284.6196 15.08837182 79651,6917.889,95.438,540.841,538.667,0.0
53793.0,STARLINK-4728,PAYLOAD,2024-02-13 18:42:56,15.08842249,0.0001646,53.2174,62.8139,79.3522,280.7656,4.2398e-05,3.87e-06,0.0,0 STARLINK-4728,1 53793U 22111W   24044.77981983  .00000387  00000-0  42398-4 0  9998,2 53793  53.2174  62.8139 0001646  79.3522 280.7656 15.08842249 78928,6917.874,95.437,540.877,538.6,0.0
53793.0,STARLINK-4728,PAYLOAD,2024-02-14 10:36:46,15.08856693,0.0001579,53.2177,59.8385,98.2835,261.8336,4.0986e-05,3.65e-06,0.0,0 STARLINK-4728,1 53793U 22111W   24045.44220830  .00000365  00000-0  40986-4 0  9997,2 53793  53.2177  59.8385 0001579  98.2835 261.8336 15.08856693 79027,6917.829,95.436,540.787,538.602,0.0
53793.0,STARLINK-4728,PAYLOAD,2024-02-15 04:06:02,15.08833856,0.0001549,53.218,56.5678,97.6357,262.4811,6.1503e-05,6.91e-06,0.0,0 STARLINK-4728,1 53793U 22111W   24046.17086594  .00000691  00000-0  61503-4 0  9995,2 53793  53.2180  56.5678 0001549  97.6357 262.4811 15.08833856 79132,6917.899,95.438,540.836,538.693,0.0
53793.0,STARLINK-4728,PAYLOAD,2024-02-15 10:27:36,15.08805698,0.0001529,53.2173,55.3778,81.0419,279.0746,-0.00033973,-5.686e-05,0.0,0 STARLINK-4728,1 53793U 22111W   24046.43584210 -.00005686  00000-0 -33973-3 0  9992,2 53793  53.2173  55.3778 0001529  81.0419 279.0746 15.08805698 79174,6917.985,95.44,540.908,538.792,0.0
53793.0,STARLINK-4728,PAYLOAD,2024-02-16 03:56:50,15.0882844,0.0001546,53.2177,52.1082,67.7819,292.3337,4.7278e-05,4.64e-06,0.0,0 STARLINK-4728,1 53793U 22111W   24047.16447901  .00000464  00000-0  47278-4 0  9999,2 53793  53.2177  52.1082 0001546  67.7819 292.3337 15.08828440 79281,6917.916,95.438,540.85,538.711,0.0
53793.0,STARLINK-4728,PAYLOAD,2024-02-16 07:07:36,15.08837401,0.0001622,53.2173,51.5124,76.75,283.3673,0.00014537,2.026e-05,0.0,0 STARLINK-4728,1 53793U 22111W   24047.29695511  .00002026  00000-0  14537-3 0  9992,2 53793  53.2173  51.5124 0001622  76.7500 283.3673 15.08837401 79302,6917.888,95.438,540.875,538.631,0.0
53793.0,STARLINK-4728,PAYLOAD,2024-02-16 10:18:22,15.08847097,0.0001497,53.2171,50.9194,76.2691,283.8468,0.00024728,3.65e-05,0.0,0 STARLINK-4728,1 53793U 22111W   24047.42943006  .00003650  00000-0  24728-3 0  9999,2 53793  53.2171  50.9194 0001497  76.2691 283.8468 15.08847097 80127,6917.859,95.437,540.759,538.688,0.0
53793.0,STARLINK-4728,PAYLOAD,2024-02-17 03:47:37,15.0884564,0.0001634,53.217,47.6478,70.7923,289.3246,0.00057844,8.931e-05,0.0,0 STARLINK-4728,1 53793U 22111W   24048.15807660  .00008931  00000-0  57844-3 0  9997,2 53793  53.2170  47.6478 0001634  70.7923 289.3246 15.08845640 79433,6917.863,95.437,540.859,538.598,0.0
53793.0,STARLINK-4728,PAYLOAD,2024-02-17 05:23:00,15.08849808,0.0001665,53.2169,47.3505,70.9737,289.1435,0.00061939,9.586e-05,0.0,0 STARLINK-4728,1 53793U 22111W   24048.22431497  .00009586  00000-0  61939-3 0  9993,2 53793  53.2169  47.3505 0001665  70.9737 289.1435 15.08849808 80247,6917.85,95.437,540.867,538.564,0.0
53793.0,STARLINK-4728,PAYLOAD,2024-02-17 16:30:42,15.0885265,0.0001705,53.217,45.2685,81.0648,279.0538,0.00033627,5.07e-05,0.0,0 STARLINK-4728,1 53793U 22111W   24048.68799020  .00005070  00000-0  33627-3 0  9999,2 53793  53.2170  45.2685 0001705  81.0648 279.0538 15.08852650 80313,6917.842,95.437,540.886,538.527,0.0
53793.0,STARLINK-4728,PAYLOAD,2024-02-18 08:24:33,15.08851583,0.0002014,53.2195,42.2996,95.6409,264.4813,6.392e-05,7.3e-06,0.0,0 STARLINK-4728,1 53793U 22111W   24049.35038588  .00000730  00000-0  63920-4 0  9997,2 53793  53.2195  42.2996 0002014  95.6409 264.4813 15.08851583 79611,6917.845,95.437,541.103,538.317,0.0
53793.0,STARLINK-4728,PAYLOAD,2024-02-18 16:21:28,15.08847375,0.0001938,53.2189,40.809,84.8352,275.2861,-5.5799e-05,-1.176e-05,0.0,0 STARLINK-4728,1 53793U 22111W   24049.68158546 -.00001176  00000-0 -55799-4 0  9992,2 53793  53.2189  40.8090 0001938  84.8352 275.2861 15.08847375 80466,6917.858,95.437,541.064,538.382,0.0
53793.0,STARLINK-4728,PAYLOAD,2024-02-19 03:29:10,15.08844512,0.0002282,53.2192,38.7269,94.4553,265.67,-4.806e-05,-1.053e-05,0.0,0 STARLINK-4728,1 53793U 22111W   24050.14526574 -.00001053  00000-0 -48060-4 0  9992,2 53793  53.2192  38.7269 0002282  94.4553 265.6700 15.08844512 79730,6917.867,95.437,541.31,538.153,0.0
53793.0,STARLINK-4728,PAYLOAD,2024-02-19 08:15:20,15.08850659,0.0001979,53.2205,37.834,94.9961,265.1257,-2.4241e-05,-6.74e-06,0.0,0 STARLINK-4728,1 53793U 22111W   24050.34398619 -.00000674  00000-0 -24241-4 0  9994,2 53793  53.2205  37.8340 0001979  94.9961 265.1257 15.08850659 80569,6917.848,95.437,541.082,538.344,0.0
53793.0,STARLINK-4728,PAYLOAD,2024-02-19 16:12:16,15.08836595,0.0001847,53.2208,36.3496,87.9564,272.1639,-3.3718e-05,-8.25e-06,0.0,0 STARLINK-4728,1 53793U 22111W   24050.67519524 -.00000825  00000-0 -33718-4 0  9997,2 53793  53.2208  36.3496 0001847  87.9564 272.1639 15.08836595 79814,6917.891,95.438,541.034,538.478,0.0
53793.0,STARLINK-4728,PAYLOAD,2024-02-19 22:33:49,15.08831751,0.0002024,53.22,35.1612,87.7183,272.4041,-4.1759e-06,-3.55e-06,0.0,0 STARLINK-4728,1 53793U 22111W   24050.94015901 -.00000355  00000-0 -41759-5 0  9990,2 53793  53.2200  35.1612 0002024  87.7183 272.4041 15.08831751 80659,6917.906,95.438,541.171,538.37,0.0
53793.0,STARLINK-4728,PAYLOAD,2024-02-20 06:30:45,15.08839048,0.0001678,53.218,33.6749,73.4028,286.7148,-1.8801e-07,-2.91e-06,0.0,0 STARLINK-4728,1 53793U 22111W   24051.27135511 -.00000291  00000-0 -18801-6 0  9999,2 53793  53.2180  33.6749 0001678  73.4028 286.7148 15.08839048 80703,6917.883,95.438,540.909,538.587,0.0
53793.0,STARLINK-4728,PAYLOAD,2024-02-20 16:03:03,15.08843777,0.0001592,53.2182,31.8905,84.4872,275.6301,5.2454e-05,5.47e-06,0.0,0 STARLINK-4728,1 53793U 22111W   24051.66879043  .00000547  00000-0  52454-4 0  9999,2 53793  53.2182  31.8905 0001592  84.4872 275.6301 15.08843777 79961,6917.869,95.437,540.835,538.633,0.0
53793.0,STARLINK-4728,PAYLOAD,2024-02-20 22:24:36,15.08839869,0.0001595,53.2182,30.701,83.1965,276.9209,0.00011926,1.611e-05,0.0,0 STARLINK-4728,1 53793U 22111W   24051.93375195  .00001611  00000-0  11926-3 0  9999,2 53793  53.2182  30.7010 0001595  83.1965 276.9209 15.08839869 80801,6917.881,95.438,540.849,538.642,0.0
53793.0,STARLINK-4728,PAYLOAD,2024-02-21 04:46:08,15.08845913,0.0001458,53.2194,29.5076,89.6691,270.4469,0.00016854,2.396e-05,0.0,0 STARLINK-4728,1 53793U 22111W   24052.19870675  .00002396  00000-0  16854-3 0  9997,2 53793  53.2194  29.5076 0001458  89.6691 270.4469 15.08845913 80845,6917.862,95.437,540.736,538.719,0.0
53793.0,STARLINK-4728,PAYLOAD,2024-02-21 15:53:50,15.08840473,0.0001587,53.2186,27.4267,87.9673,272.1501,5.2892e-05,5.54e-06,0.0,0 STARLINK-4728,1 53793U 22111W   24052.66239173  .00000554  00000-0  52892-4 0  9998,2 53793  53.2186  27.4267 0001587  87.9673 272.1501 15.08840473 80919,6917.879,95.438,540.842,538.646,0.0
53793.0,STARLINK-4728,PAYLOAD,2024-02-22 04:36:56,15.08828418,9.5e-05,53.2193,25.0481,97.302,262.808,0.00023979,3.529e-05,0.0,0 STARLINK-4728,1 53793U 22111W   24053.19231784  .00003529  00000-0  23979-3 0  9995,2 53793  53.2193  25.0481 0000950  97.3020 262.8080 15.08828418 80196,6917.916,95.438,540.438,539.124,0.0
53793.0,STARLINK-4728,PAYLOAD,2024-02-23 02:52:19,15.08845877,0.0001223,53.2172,20.8841,97.5711,262.542,0.00019913,2.883e-05,0.0,0 STARLINK-4728,1 53793U 22111W   24054.11966959  .00002883  00000-0  19913-3 0  9992,2 53793  53.2172  20.8841 0001223  97.5711 262.5420 15.08845877 80338,6917.862,95.437,540.573,538.881,0.0
53793.0,STARLINK-4728,PAYLOAD,2024-02-23 04:27:42,15.0885278,0.0001383,53.2173,20.5867,96.6359,263.4791,0.00010544,1.391e-05,0.0,0 STARLINK-4728,1 53793U 22111W   24054.18590591  .00001391  00000-0  10544-3 0  9998,2 53793  53.2173  20.5867 0001383  96.6359 263.4791 15.08852780 81141,6917.841,95.437,540.663,538.75,0.0
53793.0,STARLINK-4728,PAYLOAD,2024-02-23 21:56:57,15.08837677,0.0001701,53.22,17.3148,104.7332,255.3849,8.4641e-05,1.059e-05,0.0,0 STARLINK-4728,1 53793U 22111W   24054.91455433  .00001059  00000-0  84641-4 0  9995,2 53793  53.2200  17.3148 0001701 104.7332 255.3849 15.08837677 81258,6917.887,95.438,540.929,538.576,0.0
